STARLINK-37325          
1 68748U 26082W   26113.28933557 -.00804061  00000+0 -36089-2 0  9994
2 68748  97.2882 335.4164 0000681  43.3426 316.7898 15.85944675  1146
