{
  "norad_id": 68748,
  "name": "STARLINK-37325",
  "history": [
    {
      "epoch": "2026-04-23T06:56:38.593248Z",
      "apogee_km": 314.1222623075055,
      "perigee_km": 313.2099018752933,
      "latitude_deg": -4.1647548053121646e-05,
      "longitude_deg": 19.916897016408612,
      "height_km": 316.5161577864798,
      "semi_major_axis_km": 6691.803082091399,
      "eccentricity": 6.817e-05,
      "inclination_deg": 97.2882,
      "raan_deg": 335.4164,
      "arg_perigee_deg": 43.3426,
      "mean_anomaly_deg": 316.7898,
      "mean_motion_rev_day": 15.85944675
    }
  ]
}